STARLINK-36122          
1 66952U 25286AD  25354.83335647 -.00806027  00000+0 -58988-2 0  9993
2 66952  53.1568   9.7184 0000961  91.0362 263.2810 15.74757826  3292
HULIANWANG DIGUI-114    
1 66953U 25287A   25354.38141962  .00000019  00000+0  30336-5 0  9995
2 66953  86.4960 343.3747 0009673 185.0352 175.0710 13.66161866  1572
HULIANWANG DIGUI-115    
1 66954U 25287B   25354.59996245  .00000016  00000+0 -97933-6 0  9996
2 66954  86.4975 343.2967 0009498 182.0064 178.1058 13.66603826  1604
HULIANWANG DIGUI-116    
1 66955U 25287C   25354.59867491  .00000120  00000+0  12404-3 0  9999
2 66955  86.4919 343.2828 0008639 174.3089 185.8169 13.67009346  1602
HULIANWANG DIGUI-117    
1 66956U 25287D   25352.62166759  .00000026  00000+0  10922-4 0  9990
2 66956  86.4971 344.0126 0007676 176.3616 183.7600 13.67770338  1332
HULIANWANG DIGUI-118    
1 66957U 25287E   25354.59589027  .00000120  00000+0  12214-3 0  9996
2 66957  86.4951 343.2906 0007828 167.9951 192.1396 13.67845038  1601
CZ-6A R/B               
1 66958U 25287F   25354.59352767  .00000064  00000+0  32008-4 0  9997
2 66958  86.5061 343.1148 0107270  78.5459 282.7739 13.94920926  1634
STARLINK-35887          
1 66959U 25288A   25354.83335647 -.01232361  00000+0 -73566-2 0  9996
2 66959  43.0012 117.6191 0001851 283.0153 157.6417 15.79699330  3130
STARLINK-35879          
1 66960U 25288B   25354.83335647 -.01253550  00000+0 -74961-2 0  9991
2 66960  43.0011 117.6141 0001736 281.8539 160.7680 15.79711466  3134
STARLINK-35761          
1 66961U 25288C   25354.83335647 -.01241007  00000+0 -74180-2 0  9999
2 66961  43.0014 117.6092 0001774 284.6102 160.0721 15.79691228  3134
STARLINK-35874          
1 66962U 25288D   25354.83335647 -.01273315  00000+0 -76556-2 0  9996
2 66962  43.0012 117.6028 0001691 276.9957 170.1334 15.79640618  3131
STARLINK-36133          
1 66963U 25288E   25354.83335647 -.01282426  00000+0 -77217-2 0  9995
2 66963  43.0011 117.5976 0001680 277.3025 171.9067 15.79630054  3136
