CCSDS_OMM_VERS = 2.0
CREATION_DATE  = 
ORIGINATOR     = 

OBJECT_NAME    = STARLINK-36122
OBJECT_ID      = 2025-286AD
CENTER_NAME    = EARTH
REF_FRAME      = TEME
TIME_SYSTEM    = UTC
MEAN_ELEMENT_THEORY = SGP/SGP4

EPOCH          = 2025-12-20T20:00:01.999008
MEAN_MOTION    = 15.74757826
ECCENTRICITY   = .0000961
INCLINATION    = 53.1568
RA_OF_ASC_NODE = 9.7184
ARG_OF_PERICENTER = 91.0362
MEAN_ANOMALY   = 263.2810

EPHEMERIS_TYPE = 0
CLASSIFICATION_TYPE = U
NORAD_CAT_ID   = 66952
ELEMENT_SET_NO = 999
REV_AT_EPOCH   = 329
BSTAR          = -.58988E-2
MEAN_MOTION_DOT = -.806027E-2
MEAN_MOTION_DDOT = 0

CCSDS_OMM_VERS = 2.0
CREATION_DATE  = 
ORIGINATOR     = 

OBJECT_NAME    = HULIANWANG DIGUI-114
OBJECT_ID      = 2025-287A
CENTER_NAME    = EARTH
REF_FRAME      = TEME
TIME_SYSTEM    = UTC
MEAN_ELEMENT_THEORY = SGP/SGP4

EPOCH          = 2025-12-20T09:09:14.655168
MEAN_MOTION    = 13.66161866
ECCENTRICITY   = .00096738
INCLINATION    = 86.4960
RA_OF_ASC_NODE = 343.3747
ARG_OF_PERICENTER = 185.0352
MEAN_ANOMALY   = 175.0710

EPHEMERIS_TYPE = 0
CLASSIFICATION_TYPE = U
NORAD_CAT_ID   = 66953
ELEMENT_SET_NO = 999
REV_AT_EPOCH   = 157
BSTAR          = .3033618E-5
MEAN_MOTION_DOT = .19E-6
MEAN_MOTION_DDOT = 0

CCSDS_OMM_VERS = 2.0
CREATION_DATE  = 
ORIGINATOR     = 

OBJECT_NAME    = HULIANWANG DIGUI-115
OBJECT_ID      = 2025-287B
CENTER_NAME    = EARTH
REF_FRAME      = TEME
TIME_SYSTEM    = UTC
MEAN_ELEMENT_THEORY = SGP/SGP4

EPOCH          = 2025-12-20T14:23:56.755680
MEAN_MOTION    = 13.66603826
ECCENTRICITY   = .00094984
INCLINATION    = 86.4975
RA_OF_ASC_NODE = 343.2967
ARG_OF_PERICENTER = 182.0064
MEAN_ANOMALY   = 178.1058

EPHEMERIS_TYPE = 0
CLASSIFICATION_TYPE = U
NORAD_CAT_ID   = 66954
ELEMENT_SET_NO = 999
REV_AT_EPOCH   = 160
BSTAR          = -.979328E-6
MEAN_MOTION_DOT = .16E-6
MEAN_MOTION_DDOT = 0

CCSDS_OMM_VERS = 2.0
CREATION_DATE  = 
ORIGINATOR     = 

OBJECT_NAME    = HULIANWANG DIGUI-116
OBJECT_ID      = 2025-287C
CENTER_NAME    = EARTH
REF_FRAME      = TEME
TIME_SYSTEM    = UTC
MEAN_ELEMENT_THEORY = SGP/SGP4

EPOCH          = 2025-12-20T14:22:05.512224
MEAN_MOTION    = 13.67009346
ECCENTRICITY   = .00086399
INCLINATION    = 86.4919
RA_OF_ASC_NODE = 343.2828
ARG_OF_PERICENTER = 174.3089
MEAN_ANOMALY   = 185.8169

EPHEMERIS_TYPE = 0
CLASSIFICATION_TYPE = U
NORAD_CAT_ID   = 66955
ELEMENT_SET_NO = 999
REV_AT_EPOCH   = 160
BSTAR          = .1240372E-3
MEAN_MOTION_DOT = .12E-5
MEAN_MOTION_DDOT = 0

CCSDS_OMM_VERS = 2.0
CREATION_DATE  = 
ORIGINATOR     = 

OBJECT_NAME    = HULIANWANG DIGUI-117
OBJECT_ID      = 2025-287D
CENTER_NAME    = EARTH
REF_FRAME      = TEME
TIME_SYSTEM    = UTC
MEAN_ELEMENT_THEORY = SGP/SGP4

EPOCH          = 2025-12-18T14:55:12.079776
MEAN_MOTION    = 13.67770338
ECCENTRICITY   = .00076767
INCLINATION    = 86.4971
RA_OF_ASC_NODE = 344.0126
ARG_OF_PERICENTER = 176.3616
MEAN_ANOMALY   = 183.7600

EPHEMERIS_TYPE = 0
CLASSIFICATION_TYPE = U
NORAD_CAT_ID   = 66956
ELEMENT_SET_NO = 999
REV_AT_EPOCH   = 133
BSTAR          = .10922436E-4
MEAN_MOTION_DOT = .26E-6
MEAN_MOTION_DDOT = 0

CCSDS_OMM_VERS = 2.0
CREATION_DATE  = 
ORIGINATOR     = 

OBJECT_NAME    = HULIANWANG DIGUI-118
OBJECT_ID      = 2025-287E
CENTER_NAME    = EARTH
REF_FRAME      = TEME
TIME_SYSTEM    = UTC
MEAN_ELEMENT_THEORY = SGP/SGP4

EPOCH          = 2025-12-20T14:18:04.919328
MEAN_MOTION    = 13.67845038
ECCENTRICITY   = .00078288
INCLINATION    = 86.4951
RA_OF_ASC_NODE = 343.2906
ARG_OF_PERICENTER = 167.9951
MEAN_ANOMALY   = 192.1396

EPHEMERIS_TYPE = 0
CLASSIFICATION_TYPE = U
NORAD_CAT_ID   = 66957
ELEMENT_SET_NO = 999
REV_AT_EPOCH   = 160
BSTAR          = .12213846E-3
MEAN_MOTION_DOT = .12E-5
MEAN_MOTION_DDOT = 0

CCSDS_OMM_VERS = 2.0
CREATION_DATE  = 
ORIGINATOR     = 

OBJECT_NAME    = CZ-6A R/B
OBJECT_ID      = 2025-287F
CENTER_NAME    = EARTH
REF_FRAME      = TEME
TIME_SYSTEM    = UTC
MEAN_ELEMENT_THEORY = SGP/SGP4

EPOCH          = 2025-12-20T14:14:40.790688
MEAN_MOTION    = 13.94920926
ECCENTRICITY   = .01072707
INCLINATION    = 86.5061
RA_OF_ASC_NODE = 343.1148
ARG_OF_PERICENTER = 78.5459
MEAN_ANOMALY   = 282.7739

EPHEMERIS_TYPE = 0
CLASSIFICATION_TYPE = U
NORAD_CAT_ID   = 66958
ELEMENT_SET_NO = 999
REV_AT_EPOCH   = 163
BSTAR          = .3200793E-4
MEAN_MOTION_DOT = .64E-6
MEAN_MOTION_DDOT = 0

CCSDS_OMM_VERS = 2.0
CREATION_DATE  = 
ORIGINATOR     = 

OBJECT_NAME    = STARLINK-35887
OBJECT_ID      = 2025-288A
CENTER_NAME    = EARTH
REF_FRAME      = TEME
TIME_SYSTEM    = UTC
MEAN_ELEMENT_THEORY = SGP/SGP4

EPOCH          = 2025-12-20T20:00:01.999008
MEAN_MOTION    = 15.79699330
ECCENTRICITY   = .0001851
INCLINATION    = 43.0012
RA_OF_ASC_NODE = 117.6191
ARG_OF_PERICENTER = 283.0153
MEAN_ANOMALY   = 157.6417

EPHEMERIS_TYPE = 0
CLASSIFICATION_TYPE = U
NORAD_CAT_ID   = 66959
ELEMENT_SET_NO = 999
REV_AT_EPOCH   = 313
BSTAR          = -.73566E-2
MEAN_MOTION_DOT = -.1232361E-1
MEAN_MOTION_DDOT = 0

CCSDS_OMM_VERS = 2.0
CREATION_DATE  = 
ORIGINATOR     = 

OBJECT_NAME    = STARLINK-35879
OBJECT_ID      = 2025-288B
CENTER_NAME    = EARTH
REF_FRAME      = TEME
TIME_SYSTEM    = UTC
MEAN_ELEMENT_THEORY = SGP/SGP4

EPOCH          = 2025-12-20T20:00:01.999008
MEAN_MOTION    = 15.79711466
ECCENTRICITY   = .0001736
INCLINATION    = 43.0011
RA_OF_ASC_NODE = 117.6141
ARG_OF_PERICENTER = 281.8539
MEAN_ANOMALY   = 160.7680

EPHEMERIS_TYPE = 0
CLASSIFICATION_TYPE = U
NORAD_CAT_ID   = 66960
ELEMENT_SET_NO = 999
REV_AT_EPOCH   = 313
BSTAR          = -.74961E-2
MEAN_MOTION_DOT = -.125355E-1
MEAN_MOTION_DDOT = 0

CCSDS_OMM_VERS = 2.0
CREATION_DATE  = 
ORIGINATOR     = 

OBJECT_NAME    = STARLINK-35761
OBJECT_ID      = 2025-288C
CENTER_NAME    = EARTH
REF_FRAME      = TEME
TIME_SYSTEM    = UTC
MEAN_ELEMENT_THEORY = SGP/SGP4

EPOCH          = 2025-12-20T20:00:01.999008
MEAN_MOTION    = 15.79691228
ECCENTRICITY   = .0001774
INCLINATION    = 43.0014
RA_OF_ASC_NODE = 117.6092
ARG_OF_PERICENTER = 284.6102
MEAN_ANOMALY   = 160.0721

EPHEMERIS_TYPE = 0
CLASSIFICATION_TYPE = U
NORAD_CAT_ID   = 66961
ELEMENT_SET_NO = 999
REV_AT_EPOCH   = 313
BSTAR          = -.7418E-2
MEAN_MOTION_DOT = -.1241007E-1
MEAN_MOTION_DDOT = 0

CCSDS_OMM_VERS = 2.0
CREATION_DATE  = 
ORIGINATOR     = 

OBJECT_NAME    = STARLINK-35874
OBJECT_ID      = 2025-288D
CENTER_NAME    = EARTH
REF_FRAME      = TEME
TIME_SYSTEM    = UTC
MEAN_ELEMENT_THEORY = SGP/SGP4

EPOCH          = 2025-12-20T20:00:01.999008
MEAN_MOTION    = 15.79640618
ECCENTRICITY   = .0001691
INCLINATION    = 43.0012
RA_OF_ASC_NODE = 117.6028
ARG_OF_PERICENTER = 276.9957
MEAN_ANOMALY   = 170.1334

EPHEMERIS_TYPE = 0
CLASSIFICATION_TYPE = U
NORAD_CAT_ID   = 66962
ELEMENT_SET_NO = 999
REV_AT_EPOCH   = 313
BSTAR          = -.76556E-2
MEAN_MOTION_DOT = -.1273315E-1
MEAN_MOTION_DDOT = 0

CCSDS_OMM_VERS = 2.0
CREATION_DATE  = 
ORIGINATOR     = 

OBJECT_NAME    = STARLINK-36133
OBJECT_ID      = 2025-288E
CENTER_NAME    = EARTH
REF_FRAME      = TEME
TIME_SYSTEM    = UTC
MEAN_ELEMENT_THEORY = SGP/SGP4

EPOCH          = 2025-12-20T20:00:01.999008
MEAN_MOTION    = 15.79630054
ECCENTRICITY   = .000168
INCLINATION    = 43.0011
RA_OF_ASC_NODE = 117.5976
ARG_OF_PERICENTER = 277.3025
MEAN_ANOMALY   = 171.9067

EPHEMERIS_TYPE = 0
CLASSIFICATION_TYPE = U
NORAD_CAT_ID   = 66963
ELEMENT_SET_NO = 999
REV_AT_EPOCH   = 313
BSTAR          = -.77217E-2
MEAN_MOTION_DOT = -.1282426E-1
MEAN_MOTION_DDOT = 0

